#aV2007  2  6  0  0   .00000000      96 DD+AD WGS84 FIT  NGA
## 1413 172800.00000000   900.00000000 54137  .0000000000000
+   30     1  2  3  4  5  6  7  8  9 10 11 12 13 14 16 17 18
+         19 20 21 22 23 24 25 26 27 28 29 30 31  0  0  0  0
+          0  0  0  0  0  0  0  0  0  0  0  0  0  0  0  0  0
+          0  0  0  0  0  0  0  0  0  0  0  0  0  0  0  0  0
+          0  0  0  0  0  0  0  0  0  0  0  0  0  0  0  0  0
++         0  0  0  0  0  0  0  0  0  0  0  0  0  0  0  0  0
++         0  0  0  0  0  0  0  0  0  0  0  0  0  0  0  0  0
++         0  0  0  0  0  0  0  0  0  0  0  0  0  0  0  0  0
++         0  0  0  0  0  0  0  0  0  0  0  0  0  0  0  0  0
++         0  0  0  0  0  0  0  0  0  0  0  0  0  0  0  0  0
%c cc cc ccc ccc cccc cccc cccc cccc ccccc ccccc ccccc ccccc
%c cc cc ccc ccc cccc cccc cccc cccc ccccc ccccc ccccc ccccc
%f  0.0000000  0.000000000  0.00000000000  0.000000000000000
%f  0.0000000  0.000000000  0.00000000000  0.000000000000000
%i    0    0    0    0      0      0      0      0         0
%i    0    0    0    0      0      0      0      0         0
/*      NGA, ST. LOUIS,MO.                                  
/*   EPHEMERIS COMPUTED FROM  3 DAYS OF DATA                
/* CCCCCCCCCCCCCCCCCCCCCCCCCCCCCCCCCCCCCCCCCCCCCCCCCCCCCCCCC
/* CCCCCCCCCCCCCCCCCCCCCCCCCCCCCCCCCCCCCCCCCCCCCCCCCCCCCCCCC
*  2007  2  6 18 30   .00000000                                                 
P  1 -11770.605074  20168.297071  12807.461354    106.153510                    
V  1 -13382.745633   8722.509936 -26523.764404       .023657                    
P  2    874.920369 -15759.874207  21154.521907     80.032176                    
V  2  26138.366739   8326.159941   4814.828344       .033569                    
P  3  -6102.677956  21752.461940 -13906.166498      9.639878                    
V  3 -14302.622710  10636.336707  23582.650846       .059401                    
P  4  16171.100700  -8886.889565  19168.065981      2.430086                    
V  4  22538.783646   9446.897893 -14224.530167       .021689                    
P  5 -14212.198645 -19310.914425  11361.570563     30.230427                    
V  5  -1301.914800 -14989.409897 -26417.853969       .081791                    
P  6 -19250.044672   -679.095369  18493.269611      9.557429                    
V  6  15647.355401 -17196.667810  15764.088027       .274999                    
P  7 -20571.251310   2778.800041  16955.764958    424.018641                    
V  7  13390.556086 -16231.531920  19209.588807      -.118731                    
P  8  23040.347621   -920.884631 -13678.377212    -95.803508                    
V  8  15264.435172   7567.526255  24999.798359      -.013508                    
P  9 -17205.035266 -15290.346955 -14036.341629     56.440717                    
V  9  16564.529037   3086.811768 -24469.176842       .017185                    
P 10  -1211.807104 -25909.281797   4737.584385     97.037852                    
V 10   3749.196389   5641.670928  31426.024718       .005068                    
P 11  19888.894036  13161.571310 -12078.895768      6.297129                    
V 11 -15667.010462   1163.028783 -24445.643223       .013474                    
P 12 -12228.365360 -20774.309909  11306.579873    -53.609527                    
V 12   -509.496650 -14360.450478 -27152.084170       .042391                    
P 13  20102.960107  -2088.720711  17116.184980    140.755436                    
V 13 -16147.432459  14780.806299  20703.601703       .040639                    
P 14 -21119.312211  15868.495052  -2305.120800      7.282614                    
V 14   1015.717072  -3488.681496 -32211.099117       .013179                    
P 16  -3244.531196  23979.455141  10877.761498    119.765274                    
V 16  -4909.176711 -13056.614053  27653.541186       .036683                    
P 17  21124.054333 -15746.321430  -2797.713686     79.702862                    
V 17   -767.118072   4551.970704 -31545.244703      -.013716                    
P 18 -15600.414448  -2367.834367 -21271.461691   -253.797844                    
V 18  -3794.056786 -27034.371348   5439.972545       .001138                    
P 19   1422.277217  16931.698621 -20295.496832      1.949083                    
V 19 -21274.173752  15019.545214  11083.242764       .042056                    
P 20  13241.250384  19145.021382  12733.951254    -22.254159                    
V 20    967.403741  16474.551669 -25537.426625      -.001427                    
P 21 -25524.227079  -4040.917516  -7188.949559     70.582243                    
V 21  -7550.743652  -5884.808038  29155.544568       .010319                    
P 22 -12682.819120  11686.893307 -20037.989496    166.083666                    
V 22  -4930.390221 -25376.507456 -11606.938216       .021968                    
P 23  13329.830251   7915.074949  21510.784522    148.893582                    
V 23 -20386.389998  18376.967892   5662.759071       .015889                    
P 24 -17671.863833 -15935.231077  11711.761298     75.145228                    
V 24  14610.693618   2984.670721  26834.478727       .032532                    
P 25  -3343.436276  15118.335059  21995.361633    356.734907                    
V 25 -26257.733109  -6147.116770    389.272875      -.153597                    
P 26   -356.147647 -17098.096483 -20564.440778    -30.505088                    
V 26  20126.242808 -15324.506120  13209.378561      -.182869                    
P 27  25978.563829   4466.157760  -3632.322920     92.690600                    
V 27   4496.819690   3912.414825  31168.389859       .021972                    
P 28  13797.301344  -7024.973203 -21221.712447      7.932136                    
V 28   5471.862309  27208.154194  -5714.542617      -.009244                    
P 29   4171.041665 -19109.750639 -17573.189840    341.454762                    
V 29  18075.928019 -14028.221888  19636.934748       .117531                    
P 30 -15991.488246 -10249.293739  18306.566774     24.658689                    
V 30  -3831.575902 -23631.306090 -16197.469427       .010168                    
P 31 -13223.744500  10745.452903  20588.638307      5.386847                    
V 31 -24060.272326  -9015.886585 -10800.598952       .042144                    
EOF
